{
    "links": {
        "self": "http://www.neowsapp.com/rest/v1/neo/3599685?api_key=iIulBulltgU6a56xZRHN4H3l9WmuAYTsLGpBGhQ2"
    },
    "id": "3599685",
    "neo_reference_id": "3599685",
    "name": "(2012 DM14)",
    "designation": "2012 DM14",
    "nasa_jpl_url": "http://ssd.jpl.nasa.gov/sbdb.cgi?sstr=3599685",
    "absolute_magnitude_h": 24.4,
    "estimated_diameter": {
        "kilometers": {
            "estimated_diameter_min": 0.0350392641,
            "estimated_diameter_max": 0.0783501764
        },
        "meters": {
            "estimated_diameter_min": 35.0392641108,
            "estimated_diameter_max": 78.3501764334
        },
        "miles": {
            "estimated_diameter_min": 0.0217723826,
            "estimated_diameter_max": 0.0486845275
        },
        "feet": {
            "estimated_diameter_min": 114.9582192654,
            "estimated_diameter_max": 257.0543928497
        }
    },
    "is_potentially_hazardous_asteroid": false,
    "close_approach_data": [
        {
            "close_approach_date": "2012-02-08",
            "close_approach_date_full": "2012-Feb-08 00:06",
            "epoch_date_close_approach": 1328659560000,
            "relative_velocity": {
                "kilometers_per_second": "8.9727242043",
                "kilometers_per_hour": "32301.8071355934",
                "miles_per_hour": "20071.0867726691"
            },
            "miss_distance": {
                "astronomical": "0.149357886",
                "lunar": "58.100217654",
                "kilometers": "22343621.61330282",
                "miles": "13883682.675586116"
            },
            "orbiting_body": "Earth"
        }
    ],
    "orbital_data": {
        "orbit_id": "4",
        "orbit_determination_date": "2017-04-06 08:50:50",
        "first_observation_date": "2012-02-23",
        "last_observation_date": "2012-02-24",
        "data_arc_in_days": 1,
        "observations_used": 14,
        "orbit_uncertainty": "9",
        "minimum_orbit_intersection": ".142656",
        "jupiter_tisserand_invariant": "4.570",
        "epoch_osculation": "2455981.5",
        "eccentricity": ".2771348172193036",
        "semi_major_axis": "1.447391176719582",
        "inclination": "15.91669559428983",
        "ascending_node_longitude": "332.2622890011958",
        "orbital_period": "636.0295714565725",
        "perihelion_distance": "1.046268687514568",
        "perihelion_argument": "122.9713771528031",
        "aphelion_distance": "1.848513665924596",
        "perihelion_time": "2455920.363567020386",
        "mean_anomaly": "34.60391915781199",
        "mean_motion": ".5660114185816287",
        "equinox": "J2000",
        "orbit_class": {
            "orbit_class_type": "AMO",
            "orbit_class_description": "Near-Earth asteroid orbits similar to that of 1221 Amor",
            "orbit_class_range": "1.017 AU < q (perihelion) < 1.3 AU"
        }
    },
    "is_sentry_object": false
}